<?xml version="1.0" encoding="UTF-8"?>
<ndm xmlns:xsi="http://www.w3.org/2001/XMLSchema-instance" xsi:noNamespaceSchemaLocation="https://sanaregistry.org/r/ndmxml_unqualified/ndmxml-2.0.0-master-2.0.xsd">
<omm id="CCSDS_OMM_VERS" version="2.0">
<header><CREATION_DATE/><ORIGINATOR/></header><body><segment><metadata><OBJECT_NAME>ONEWEB-0650</OBJECT_NAME><OBJECT_ID>2023-029T</OBJECT_ID><CENTER_NAME>EARTH</CENTER_NAME><REF_FRAME>TEME</REF_FRAME><TIME_SYSTEM>UTC</TIME_SYSTEM><MEAN_ELEMENT_THEORY>SGP4</MEAN_ELEMENT_THEORY></metadata><data><meanElements><EPOCH>2023-12-24T21:37:28.820064</EPOCH><MEAN_MOTION>13.19725242</MEAN_MOTION><ECCENTRICITY>.0001943</ECCENTRICITY><INCLINATION>87.9206</INCLINATION><RA_OF_ASC_NODE>125.1673</RA_OF_ASC_NODE><ARG_OF_PERICENTER>116.8100</ARG_OF_PERICENTER><MEAN_ANOMALY>243.3231</MEAN_ANOMALY></meanElements><tleParameters><EPHEMERIS_TYPE>0</EPHEMERIS_TYPE><CLASSIFICATION_TYPE>U</CLASSIFICATION_TYPE><NORAD_CAT_ID>55813</NORAD_CAT_ID><ELEMENT_SET_NO>999</ELEMENT_SET_NO><REV_AT_EPOCH>3949</REV_AT_EPOCH><BSTAR>-.19401E-3</BSTAR><MEAN_MOTION_DOT>-.65E-6</MEAN_MOTION_DOT><MEAN_MOTION_DDOT>0</MEAN_MOTION_DDOT></tleParameters></data></segment></body></omm>
<omm id="CCSDS_OMM_VERS" version="2.0">
<header><CREATION_DATE/><ORIGINATOR/></header><body><segment><metadata><OBJECT_NAME>ONEWEB-0652</OBJECT_NAME><OBJECT_ID>2023-029U</OBJECT_ID><CENTER_NAME>EARTH</CENTER_NAME><REF_FRAME>TEME</REF_FRAME><TIME_SYSTEM>UTC</TIME_SYSTEM><MEAN_ELEMENT_THEORY>SGP4</MEAN_ELEMENT_THEORY></metadata><data><meanElements><EPOCH>2023-12-24T19:47:21.395616</EPOCH><MEAN_MOTION>13.14504528</MEAN_MOTION><ECCENTRICITY>.0001458</ECCENTRICITY><INCLINATION>87.8987</INCLINATION><RA_OF_ASC_NODE>109.9238</RA_OF_ASC_NODE><ARG_OF_PERICENTER>102.2344</ARG_OF_PERICENTER><MEAN_ANOMALY>257.8950</MEAN_ANOMALY></meanElements><tleParameters><EPHEMERIS_TYPE>0</EPHEMERIS_TYPE><CLASSIFICATION_TYPE>U</CLASSIFICATION_TYPE><NORAD_CAT_ID>55814</NORAD_CAT_ID><ELEMENT_SET_NO>999</ELEMENT_SET_NO><REV_AT_EPOCH>4042</REV_AT_EPOCH><BSTAR>-.68517E-4</BSTAR><MEAN_MOTION_DOT>-.13E-6</MEAN_MOTION_DOT><MEAN_MOTION_DDOT>0</MEAN_MOTION_DDOT></tleParameters></data></segment></body></omm>
<omm id="CCSDS_OMM_VERS" version="2.0">
<header><CREATION_DATE/><ORIGINATOR/></header><body><segment><metadata><OBJECT_NAME>ONEWEB-0653</OBJECT_NAME><OBJECT_ID>2023-029V</OBJECT_ID><CENTER_NAME>EARTH</CENTER_NAME><REF_FRAME>TEME</REF_FRAME><TIME_SYSTEM>UTC</TIME_SYSTEM><MEAN_ELEMENT_THEORY>SGP4</MEAN_ELEMENT_THEORY></metadata><data><meanElements><EPOCH>2023-12-24T19:24:30.018528</EPOCH><MEAN_MOTION>13.14500977</MEAN_MOTION><ECCENTRICITY>.0001179</ECCENTRICITY><INCLINATION>87.8990</INCLINATION><RA_OF_ASC_NODE>109.9028</RA_OF_ASC_NODE><ARG_OF_PERICENTER>102.7449</ARG_OF_PERICENTER><MEAN_ANOMALY>257.3812</MEAN_ANOMALY></meanElements><tleParameters><EPHEMERIS_TYPE>0</EPHEMERIS_TYPE><CLASSIFICATION_TYPE>U</CLASSIFICATION_TYPE><NORAD_CAT_ID>55815</NORAD_CAT_ID><ELEMENT_SET_NO>999</ELEMENT_SET_NO><REV_AT_EPOCH>4045</REV_AT_EPOCH><BSTAR>-.591E-3</BSTAR><MEAN_MOTION_DOT>-.206E-5</MEAN_MOTION_DOT><MEAN_MOTION_DDOT>0</MEAN_MOTION_DDOT></tleParameters></data></segment></body></omm>
<omm id="CCSDS_OMM_VERS" version="2.0">
<header><CREATION_DATE/><ORIGINATOR/></header><body><segment><metadata><OBJECT_NAME>ONEWEB-0654</OBJECT_NAME><OBJECT_ID>2023-029W</OBJECT_ID><CENTER_NAME>EARTH</CENTER_NAME><REF_FRAME>TEME</REF_FRAME><TIME_SYSTEM>UTC</TIME_SYSTEM><MEAN_ELEMENT_THEORY>SGP4</MEAN_ELEMENT_THEORY></metadata><data><meanElements><EPOCH>2023-12-24T19:17:39.234048</EPOCH><MEAN_MOTION>13.14504552</MEAN_MOTION><ECCENTRICITY>.0001244</ECCENTRICITY><INCLINATION>87.8988</INCLINATION><RA_OF_ASC_NODE>109.9184</RA_OF_ASC_NODE><ARG_OF_PERICENTER>90.2360</ARG_OF_PERICENTER><MEAN_ANOMALY>269.8912</MEAN_ANOMALY></meanElements><tleParameters><EPHEMERIS_TYPE>0</EPHEMERIS_TYPE><CLASSIFICATION_TYPE>U</CLASSIFICATION_TYPE><NORAD_CAT_ID>55816</NORAD_CAT_ID><ELEMENT_SET_NO>999</ELEMENT_SET_NO><REV_AT_EPOCH>4047</REV_AT_EPOCH><BSTAR>-.70035E-3</BSTAR><MEAN_MOTION_DOT>-.247E-5</MEAN_MOTION_DOT><MEAN_MOTION_DDOT>0</MEAN_MOTION_DDOT></tleParameters></data></segment></body></omm>
<omm id="CCSDS_OMM_VERS" version="2.0">
<header><CREATION_DATE/><ORIGINATOR/></header><body><segment><metadata><OBJECT_NAME>ONEWEB-0656</OBJECT_NAME><OBJECT_ID>2023-029X</OBJECT_ID><CENTER_NAME>EARTH</CENTER_NAME><REF_FRAME>TEME</REF_FRAME><TIME_SYSTEM>UTC</TIME_SYSTEM><MEAN_ELEMENT_THEORY>SGP4</MEAN_ELEMENT_THEORY></metadata><data><meanElements><EPOCH>2023-12-24T20:01:57.269568</EPOCH><MEAN_MOTION>13.20773217</MEAN_MOTION><ECCENTRICITY>.0002013</ECCENTRICITY><INCLINATION>87.9205</INCLINATION><RA_OF_ASC_NODE>94.6265</RA_OF_ASC_NODE><ARG_OF_PERICENTER>83.7867</ARG_OF_PERICENTER><MEAN_ANOMALY>276.3496</MEAN_ANOMALY></meanElements><tleParameters><EPHEMERIS_TYPE>0</EPHEMERIS_TYPE><CLASSIFICATION_TYPE>U</CLASSIFICATION_TYPE><NORAD_CAT_ID>55817</NORAD_CAT_ID><ELEMENT_SET_NO>999</ELEMENT_SET_NO><REV_AT_EPOCH>4164</REV_AT_EPOCH><BSTAR>-.2744E-3</BSTAR><MEAN_MOTION_DOT>-.99E-6</MEAN_MOTION_DOT><MEAN_MOTION_DDOT>0</MEAN_MOTION_DDOT></tleParameters></data></segment></body></omm>
<omm id="CCSDS_OMM_VERS" version="2.0">
<header><CREATION_DATE/><ORIGINATOR/></header><body><segment><metadata><OBJECT_NAME>ONEWEB-0657</OBJECT_NAME><OBJECT_ID>2023-029Y</OBJECT_ID><CENTER_NAME>EARTH</CENTER_NAME><REF_FRAME>TEME</REF_FRAME><TIME_SYSTEM>UTC</TIME_SYSTEM><MEAN_ELEMENT_THEORY>SGP4</MEAN_ELEMENT_THEORY></metadata><data><meanElements><EPOCH>2023-12-24T21:30:39.338496</EPOCH><MEAN_MOTION>13.19724532</MEAN_MOTION><ECCENTRICITY>.0002409</ECCENTRICITY><INCLINATION>87.9207</INCLINATION><RA_OF_ASC_NODE>125.1738</RA_OF_ASC_NODE><ARG_OF_PERICENTER>88.1224</ARG_OF_PERICENTER><MEAN_ANOMALY>272.0185</MEAN_ANOMALY></meanElements><tleParameters><EPHEMERIS_TYPE>0</EPHEMERIS_TYPE><CLASSIFICATION_TYPE>U</CLASSIFICATION_TYPE><NORAD_CAT_ID>55818</NORAD_CAT_ID><ELEMENT_SET_NO>999</ELEMENT_SET_NO><REV_AT_EPOCH>3950</REV_AT_EPOCH><BSTAR>-.1898E-3</BSTAR><MEAN_MOTION_DOT>-.63E-6</MEAN_MOTION_DOT><MEAN_MOTION_DDOT>0</MEAN_MOTION_DDOT></tleParameters></data></segment></body></omm>
<omm id="CCSDS_OMM_VERS" version="2.0">
<header><CREATION_DATE/><ORIGINATOR/></header><body><segment><metadata><OBJECT_NAME>ONEWEB-0658</OBJECT_NAME><OBJECT_ID>2023-029Z</OBJECT_ID><CENTER_NAME>EARTH</CENTER_NAME><REF_FRAME>TEME</REF_FRAME><TIME_SYSTEM>UTC</TIME_SYSTEM><MEAN_ELEMENT_THEORY>SGP4</MEAN_ELEMENT_THEORY></metadata><data><meanElements><EPOCH>2023-12-24T21:23:49.024032</EPOCH><MEAN_MOTION>13.19723865</MEAN_MOTION><ECCENTRICITY>.0002059</ECCENTRICITY><INCLINATION>87.9207</INCLINATION><RA_OF_ASC_NODE>125.1120</RA_OF_ASC_NODE><ARG_OF_PERICENTER>122.8378</ARG_OF_PERICENTER><MEAN_ANOMALY>237.2953</MEAN_ANOMALY></meanElements><tleParameters><EPHEMERIS_TYPE>0</EPHEMERIS_TYPE><CLASSIFICATION_TYPE>U</CLASSIFICATION_TYPE><NORAD_CAT_ID>55819</NORAD_CAT_ID><ELEMENT_SET_NO>999</ELEMENT_SET_NO><REV_AT_EPOCH>3951</REV_AT_EPOCH><BSTAR>-.12542E-3</BSTAR><MEAN_MOTION_DOT>-.37E-6</MEAN_MOTION_DOT><MEAN_MOTION_DDOT>0</MEAN_MOTION_DDOT></tleParameters></data></segment></body></omm>
<omm id="CCSDS_OMM_VERS" version="2.0">
<header><CREATION_DATE/><ORIGINATOR/></header><body><segment><metadata><OBJECT_NAME>ONEWEB-0660</OBJECT_NAME><OBJECT_ID>2023-029AA</OBJECT_ID><CENTER_NAME>EARTH</CENTER_NAME><REF_FRAME>TEME</REF_FRAME><TIME_SYSTEM>UTC</TIME_SYSTEM><MEAN_ELEMENT_THEORY>SGP4</MEAN_ELEMENT_THEORY></metadata><data><meanElements><EPOCH>2023-12-24T20:35:16.939680</EPOCH><MEAN_MOTION>13.14506486</MEAN_MOTION><ECCENTRICITY>.0001514</ECCENTRICITY><INCLINATION>87.8989</INCLINATION><RA_OF_ASC_NODE>109.8834</RA_OF_ASC_NODE><ARG_OF_PERICENTER>130.6806</ARG_OF_PERICENTER><MEAN_ANOMALY>229.4455</MEAN_ANOMALY></meanElements><tleParameters><EPHEMERIS_TYPE>0</EPHEMERIS_TYPE><CLASSIFICATION_TYPE>U</CLASSIFICATION_TYPE><NORAD_CAT_ID>55820</NORAD_CAT_ID><ELEMENT_SET_NO>999</ELEMENT_SET_NO><REV_AT_EPOCH>4046</REV_AT_EPOCH><BSTAR>.28927E-3</BSTAR><MEAN_MOTION_DOT>.12E-5</MEAN_MOTION_DOT><MEAN_MOTION_DDOT>0</MEAN_MOTION_DDOT></tleParameters></data></segment></body></omm>

</ndm>
