ONEWEB-0650             
1 55813U 23029T   23358.90102801 -.00000065  00000+0 -19401-3 0  9990
2 55813  87.9206 125.1673 0001943 116.8100 243.3231 13.19725242 39494
ONEWEB-0652             
1 55814U 23029U   23358.82455319 -.00000013  00000+0 -68517-4 0  9993
2 55814  87.8987 109.9238 0001458 102.2344 257.8950 13.14504528 40427
ONEWEB-0653             
1 55815U 23029V   23358.80868077 -.00000206  00000+0 -59100-3 0  9992
2 55815  87.8990 109.9028 0001179 102.7449 257.3812 13.14500977 40459
ONEWEB-0654             
1 55816U 23029W   23358.80392632 -.00000247  00000+0 -70035-3 0  9997
2 55816  87.8988 109.9184 0001244  90.2360 269.8912 13.14504552 40470
ONEWEB-0656             
1 55817U 23029X   23358.83469062 -.00000099  00000+0 -27440-3 0  9990
2 55817  87.9205  94.6265 0002013  83.7867 276.3496 13.20773217 41641
ONEWEB-0657             
1 55818U 23029Y   23358.89628864 -.00000063  00000+0 -18980-3 0  9994
2 55818  87.9207 125.1738 0002409  88.1224 272.0185 13.19724532 39508
ONEWEB-0658             
1 55819U 23029Z   23358.89153963 -.00000037  00000+0 -12542-3 0  9997
2 55819  87.9207 125.1120 0002059 122.8378 237.2953 13.19723865 39516
ONEWEB-0660             
1 55820U 23029AA  23358.85783495  .00000120  00000+0  28927-3 0  9999
2 55820  87.8989 109.8834 0001514 130.6806 229.4455 13.14506486 40462
